STARLINK-1434           
1 45712U 20035BH  26068.24137979  .00054112  00000+0  20295-2 0  9995
2 45712  53.0547  22.1128 0005343  88.0400 272.1210 15.26724568319325
STARLINK-30830          
1 58194U 23167V   26067.27905089 -.00000878  00000+0 -23033-4 0  9996
2 58194  43.0047 150.9804 0002253 291.0825  68.9786 15.26745059130779
